
 1 90027U RELEAS14 00051.03935584 +.00000209  00000 0  99999-4 0 1844                                                                                                                                                                                                                                                                                                                                                                                                                                                           
 2 90027  64.3871 233.3669 6991935 271.4388  16.5332  1.9699794003847                                                                                                                                                                                                                                                                                                                                                                                                                                                           

         0.0000000        1.9700877        0.6991935       64.3871000      233.3669000      271.4388000       16.5332000
      2700.0000000        1.9700927        0.6991225       64.3869902      233.1614369      271.4146650      266.2954934
      5400.0000000        1.9701173        0.6990514       64.3868804      232.9559738      271.3905301      156.0679725
      8100.0000000        1.9701566        0.6989804       64.3867705      232.7505107      271.3663951       45.8624233
     10800.0000000        1.9702028        0.6989093       64.3866607      232.5450477      271.3422602      295.6862508
     13500.0000000        1.9702474        0.6988383       64.3865509      232.3395846      271.3181252      185.5412660
     16200.0000000        1.9702829        0.6987672       64.3864411      232.1341215      271.2939903       75.4237591
     18900.0000000        1.9703037        0.6986962       64.3863312      231.9286584      271.2698553      325.3255347
     21600.0000000        1.9703067        0.6986252       64.3862214      231.7231953      271.2457203      215.2354723
     24300.0000000        1.9702916        0.6985541       64.3861116      231.5177322      271.2215854      105.1412743
     27000.0000000        1.9702607        0.6984831       64.3860018      231.3122691      271.1974504      355.0313262
     29700.0000000        1.9702185        0.6984120       64.3858920      231.1068060      271.1733155      244.8963277
     32400.0000000        1.9701721        0.6983410       64.3857821      230.9013429      271.1491805      134.7309403
     35100.0000000        1.9701297        0.6982699       64.3856723      230.6958799      271.1250456       24.5350286
     37800.0000000        1.9700993        0.6981989       64.3855625      230.4904168      271.1009106      274.3140634
     40500.0000000        1.9700871        0.6981279       64.3854527      230.2849537      271.0767757      164.0784247
     43200.0000000        1.9700957        0.6980568       64.3853429      230.0794906      271.0526407       53.8415168


 1 90028U RELEAS14 00051.15714066 -.00000031  00000 0 -13568-4 0 0377                                                                                                                                                                                                                                                                                                                                                                                                                                                           
 2 90028  72.5158 115.6069 0011430 124.7615 235.4297 12.4439648802428                                                                                                                                                                                                                                                                                                                                                                                                                                                           

         0.0000000       12.4488095        0.0011430       72.5158000      115.6069000      124.7615000      235.4297000
      2700.0000000       12.4488095        0.0011430       72.5158000      112.9152211      122.2994556      355.1048400
      5400.0000000       12.4488094        0.0011430       72.5158000      110.2235423      119.8374144      114.7799281
      8100.0000000       12.4488093        0.0011430       72.5158000      107.5318636      117.3753719      234.4549691
     10800.0000000       12.4488092        0.0011430       72.5158000      104.8401848      114.9133275      354.1299634
     13500.0000000       12.4488092        0.0011430       72.5158000      102.1485061      112.4512862      113.8049060
     16200.0000000       12.4488091        0.0011430       72.5158000       99.4568274      109.9892437      233.4798012
     18900.0000000       12.4488090        0.0011430       72.5158000       96.7651488      107.5271993      353.1546499
     21600.0000000       12.4488089        0.0011430       72.5158000       94.0734702      105.0651581      112.8294468
     24300.0000000       12.4488089        0.0011430       72.5158000       91.3817916      102.6031156      232.5041964
     27000.0000000       12.4488088        0.0011430       72.5158000       88.6901131      100.1410712      352.1788993
     29700.0000000       12.4488087        0.0011430       72.5158000       85.9984346       97.6790299      111.8535506
     32400.0000000       12.4488087        0.0011430       72.5158000       83.3067562       95.2169875      231.5281545
     35100.0000000       12.4488086        0.0011430       72.5158000       80.6150778       92.7549430      351.2027118
     37800.0000000       12.4488085        0.0011430       72.5158000       77.9233994       90.2929018      110.8772174
     40500.0000000       12.4488084        0.0011430       72.5158000       75.2317210       87.8308593      230.5516756
     43200.0000000       12.4488084        0.0011430       72.5158000       72.5400427       85.3688149      350.2260872


 1 90029U RELEAS14 00051.38558242 +.00000961  00000 0  44365-3 0 5319                                                                                                                                                                                                                                                                                                                                                                                                                                                           
 2 90029  98.7064 100.2836 0014146 119.4841 240.7749 14.2193618701011                                                                                                                                                                                                                                                                                                                                                                                                                                                           

         0.0000000       14.2278081        0.0014146       98.7064000      100.2836000      119.4841000      240.7749000
      2700.0000000       14.2278449        0.0014146       98.7064000      102.1338489      114.0692401      118.8528408
      5400.0000000       14.2278816        0.0014146       98.7064000      103.9841090      108.6549405      356.9550153
      8100.0000000       14.2279183        0.0014146       98.7064000      105.8343803      103.2394820      235.0831440
     10800.0000000       14.2279551        0.0014145       98.7064000      107.6846627       97.8246879      113.2354057
     13500.0000000       14.2279918        0.0014145       98.7064000      109.5349563       92.4103502      351.4120100
     16200.0000000       14.2280286        0.0014145       98.7064000      111.3852611       86.9948662      229.6145613
     18900.0000000       14.2280653        0.0014145       98.7064000      113.2355771       81.5801372      107.8411603
     21600.0000000       14.2281021        0.0014145       98.7064000      115.0859042       76.1657560      346.0922157
     24300.0000000       14.2281388        0.0014145       98.7064000      116.9362426       70.7502530      224.3691989
     27000.0000000       14.2281756        0.0014145       98.7064000      118.7865921       65.3355877      102.6701522
     29700.0000000       14.2282123        0.0014145       98.7064000      120.6369527       59.9211580      340.9956795
     32400.0000000       14.2282491        0.0014145       98.7064000      122.4873246       54.5056425      219.3471038
     35100.0000000       14.2282858        0.0014145       98.7064000      124.3377076       49.0910391       97.7224291
     37800.0000000       14.2283226        0.0014145       98.7064000      126.1881019       43.6765563      336.1224487
     40500.0000000       14.2283594        0.0014145       98.7064000      128.0385072       38.2610351      214.5483230
     43200.0000000       14.2283961        0.0014144       98.7064000      129.8889238       32.8464910       92.9980387

